[
    {
        "Altitude(m)": 553593.2067666878,
        "Argument of Periapsis(deg)": 0.006622991110713501,
        "Eccentricity": 0.0,
        "Inclination(deg)": 53.0,
        "Latitude(deg)": 16.505838806408704,
        "Longitude(deg)": -63.60391518961046,
        "Mean Anomaly(deg)": -200.81750713242246,
        "RAAN(deg)": 229.990143368528,
        "Satellite Name": "Starlink Shell 1 1021",
        "Satellite Number": 1021,
        "Semi-Major Axis(m)": 6931778.249405717,
        "Time(s)": 190
    },
    {
        "Altitude(m)": 553571.033321464,
        "Argument of Periapsis(deg)": 0.0069715695902247375,
        "Eccentricity": 0.0,
        "Inclination(deg)": 53.0,
        "Latitude(deg)": 16.014282071850772,
        "Longitude(deg)": -63.23658007153471,
        "Mean Anomaly(deg)": -200.19067592886574,
        "RAAN(deg)": 229.98962459845055,
        "Satellite Name": "Starlink Shell 1 1021",
        "Satellite Number": 1021,
        "Semi-Major Axis(m)": 6931778.249405717,
        "Time(s)": 200
    },
    {
        "Altitude(m)": 553551.2397546752,
        "Argument of Periapsis(deg)": 0.007320148069735974,
        "Eccentricity": 0.0,
        "Inclination(deg)": 53.0,
        "Latitude(deg)": 15.521932657853196,
        "Longitude(deg)": -62.87124240497994,
        "Mean Anomaly(deg)": -199.56384472530897,
        "RAAN(deg)": 229.98910582837306,
        "Satellite Name": "Starlink Shell 1 1021",
        "Satellite Number": 1021,
        "Semi-Major Axis(m)": 6931778.249405717,
        "Time(s)": 210
    },
    {
        "Altitude(m)": 553533.8579342491,
        "Argument of Periapsis(deg)": 0.007668726549247212,
        "Eccentricity": 0.0,
        "Inclination(deg)": 53.0,
        "Latitude(deg)": 15.028819861036428,
        "Longitude(deg)": -62.507831681402614,
        "Mean Anomaly(deg)": -198.9370135217523,
        "RAAN(deg)": 229.98858705829556,
        "Satellite Name": "Starlink Shell 1 1021",
        "Satellite Number": 1021,
        "Semi-Major Axis(m)": 6931778.249405717,
        "Time(s)": 220
    },
    {
        "Altitude(m)": 553518.9186495333,
        "Argument of Periapsis(deg)": 0.00801730502875845,
        "Eccentricity": 0.0,
        "Inclination(deg)": 53.0,
        "Latitude(deg)": 14.53497255348862,
        "Longitude(deg)": -62.146278208478705,
        "Mean Anomaly(deg)": -198.31018231819556,
        "RAAN(deg)": 229.98806828821813,
        "Satellite Name": "Starlink Shell 1 1021",
        "Satellite Number": 1021,
        "Semi-Major Axis(m)": 6931778.249405717,
        "Time(s)": 230
    },
    {
        "Altitude(m)": 553506.451593331,
        "Argument of Periapsis(deg)": 0.008365883508269684,
        "Eccentricity": 0.0,
        "Inclination(deg)": 53.0,
        "Latitude(deg)": 14.040419199949774,
        "Longitude(deg)": -61.7865125788741,
        "Mean Anomaly(deg)": -197.6833511146389,
        "RAAN(deg)": 229.98754951814064,
        "Satellite Name": "Starlink Shell 1 1021",
        "Satellite Number": 1021,
        "Semi-Major Axis(m)": 6931778.249405717,
        "Time(s)": 240
    },
    {
        "Altitude(m)": 553496.4853444999,
        "Argument of Periapsis(deg)": 0.008714461987780921,
        "Eccentricity": 0.0,
        "Inclination(deg)": 53.0,
        "Latitude(deg)": 13.545187874632914,
        "Longitude(deg)": -61.42846665184925,
        "Mean Anomaly(deg)": -197.0565199110821,
        "RAAN(deg)": 229.98703074806315,
        "Satellite Name": "Starlink Shell 1 1021",
        "Satellite Number": 1021,
        "Semi-Major Axis(m)": 6931778.249405717,
        "Time(s)": 250
    },
    {
        "Altitude(m)": 553489.047351063,
        "Argument of Periapsis(deg)": 0.009063040467292158,
        "Eccentricity": 0.0,
        "Inclination(deg)": 53.0,
        "Latitude(deg)": 13.049306277699198,
        "Longitude(deg)": -61.072073021977054,
        "Mean Anomaly(deg)": -196.4296887075254,
        "RAAN(deg)": 229.98651197798574,
        "Satellite Name": "Starlink Shell 1 1021",
        "Satellite Number": 1021,
        "Semi-Major Axis(m)": 6931778.249405717,
        "Time(s)": 260
    },
    {
        "Altitude(m)": 553484.163913868,
        "Argument of Periapsis(deg)": 0.009411618946803396,
        "Eccentricity": 0.0,
        "Inclination(deg)": 53.0,
        "Latitude(deg)": 12.552801751396455,
        "Longitude(deg)": -60.71726448786571,
        "Mean Anomaly(deg)": -195.8028575039687,
        "RAAN(deg)": 229.98599320790825,
        "Satellite Name": "Starlink Shell 1 1021",
        "Satellite Number": 1021,
        "Semi-Major Axis(m)": 6931778.249405717,
        "Time(s)": 270
    },
    {
        "Altitude(m)": 553481.8601708278,
        "Argument of Periapsis(deg)": 0.009760197426314633,
        "Eccentricity": 0.0,
        "Inclination(deg)": 53.0,
        "Latitude(deg)": 12.055701295873856,
        "Longitude(deg)": -60.36397503377673,
        "Mean Anomaly(deg)": -195.176026300412,
        "RAAN(deg)": 229.98547443783076,
        "Satellite Name": "Starlink Shell 1 1021",
        "Satellite Number": 1021,
        "Semi-Major Axis(m)": 6931778.249405717,
        "Time(s)": 280
    },
    {
        "Altitude(m)": 553482.1600817096,
        "Argument of Periapsis(deg)": 0.01010877590582587,
        "Eccentricity": 0.0,
        "Inclination(deg)": 53.0,
        "Latitude(deg)": 11.558031584687646,
        "Longitude(deg)": -60.01213929840923,
        "Mean Anomaly(deg)": -194.5491950968553,
        "RAAN(deg)": 229.9849556677533,
        "Satellite Name": "Starlink Shell 1 1021",
        "Satellite Number": 1021,
        "Semi-Major Axis(m)": 6931778.249405717,
        "Time(s)": 290
    },
    {
        "Altitude(m)": 553485.0864134819,
        "Argument of Periapsis(deg)": 0.010457354385337106,
        "Eccentricity": 0.0,
        "Inclination(deg)": 53.0,
        "Latitude(deg)": 11.059818980008117,
        "Longitude(deg)": -59.661692043734945,
        "Mean Anomaly(deg)": -193.92236389329852,
        "RAAN(deg)": 229.9844368976758,
        "Satellite Name": "Starlink Shell 1 1021",
        "Satellite Number": 1021,
        "Semi-Major Axis(m)": 6931778.249405717,
        "Time(s)": 300
    },
    {
        "Altitude(m)": 553490.6607262854,
        "Argument of Periapsis(deg)": 0.010805932864848343,
        "Eccentricity": 0.0,
        "Inclination(deg)": 53.0,
        "Latitude(deg)": 10.561089547541037,
        "Longitude(deg)": -59.31256913676812,
        "Mean Anomaly(deg)": -193.29553268974183,
        "RAAN(deg)": 229.98391812759834,
        "Satellite Name": "Starlink Shell 1 1021",
        "Satellite Number": 1021,
        "Semi-Major Axis(m)": 6931778.249405717,
        "Time(s)": 310
    },
    {
        "Altitude(m)": 553498.9033599672,
        "Argument of Periapsis(deg)": 0.01115451134435958,
        "Eccentricity": 0.0,
        "Inclination(deg)": 53.0,
        "Latitude(deg)": 10.061869071176332,
        "Longitude(deg)": -58.9647070185339,
        "Mean Anomaly(deg)": -192.66870148618517,
        "RAAN(deg)": 229.98339935752088,
        "Satellite Name": "Starlink Shell 1 1021",
        "Satellite Number": 1021,
        "Semi-Major Axis(m)": 6931778.249405717,
        "Time(s)": 320
    },
    {
        "Altitude(m)": 553509.8334212067,
        "Argument of Periapsis(deg)": 0.011503089823870818,
        "Eccentricity": 0.0,
        "Inclination(deg)": 53.0,
        "Latitude(deg)": 9.5621830673776,
        "Longitude(deg)": -58.61804217311684,
        "Mean Anomaly(deg)": -192.04187028262842,
        "RAAN(deg)": 229.9828805874434,
        "Satellite Name": "Starlink Shell 1 1021",
        "Satellite Number": 1021,
        "Semi-Major Axis(m)": 6931778.249405717,
        "Time(s)": 330
    },
    {
        "Altitude(m)": 553523.4687712808,
        "Argument of Periapsis(deg)": 0.011851668303382053,
        "Eccentricity": 0.0,
        "Inclination(deg)": 53.0,
        "Latitude(deg)": 9.06205679932127,
        "Longitude(deg)": -58.272512109664646,
        "Mean Anomaly(deg)": -191.41503907907165,
        "RAAN(deg)": 229.9823618173659,
        "Satellite Name": "Starlink Shell 1 1021",
        "Satellite Number": 1021,
        "Semi-Major Axis(m)": 6931778.249405717,
        "Time(s)": 340
    },
    {
        "Altitude(m)": 553539.826014401,
        "Argument of Periapsis(deg)": 0.012200246782893292,
        "Eccentricity": 0.0,
        "Inclination(deg)": 53.0,
        "Latitude(deg)": 8.561515290802376,
        "Longitude(deg)": -57.928054831610304,
        "Mean Anomaly(deg)": -190.78820787551493,
        "RAAN(deg)": 229.98184304728846,
        "Satellite Name": "Starlink Shell 1 1021",
        "Satellite Number": 1021,
        "Semi-Major Axis(m)": 6931778.249405717,
        "Time(s)": 350
    },
    {
        "Altitude(m)": 553558.9204867049,
        "Argument of Periapsis(deg)": 0.012548825262404526,
        "Eccentricity": 0.0,
        "Inclination(deg)": 53.0,
        "Latitude(deg)": 8.060583339916262,
        "Longitude(deg)": -57.58460830598488,
        "Mean Anomaly(deg)": -190.16137667195824,
        "RAAN(deg)": 229.98132427721097,
        "Satellite Name": "Starlink Shell 1 1021",
        "Satellite Number": 1021,
        "Semi-Major Axis(m)": 6931778.249405717,
        "Time(s)": 360
    },
    {
        "Altitude(m)": 553580.7662458527,
        "Argument of Periapsis(deg)": 0.012897403741915765,
        "Eccentricity": 0.0,
        "Inclination(deg)": 53.0,
        "Latitude(deg)": 7.559285532528119,
        "Longitude(deg)": -57.24211144569746,
        "Mean Anomaly(deg)": -189.5345454684016,
        "RAAN(deg)": 229.98080550713348,
        "Satellite Name": "Starlink Shell 1 1021",
        "Satellite Number": 1021,
        "Semi-Major Axis(m)": 6931778.249405717,
        "Time(s)": 370
    }
]